SENTINEL-6              
1 46984U 20086A   24139.48470600 -.00000058  00000+0  11316-4 0  9994
2 46984  66.0415 272.9600 0007789 270.5240  89.4883 12.80931054163140
